[
  {
    "OBJECT_NAME": "NUSAT-33 (ALBANIA-2)",
    "OBJECT_ID": "2023-001AQ",
    "EPOCH": "2026-07-23T16:24:51.481152",
    "MEAN_MOTION": 15.28377861,
    "ECCENTRICITY": 0.0004592,
    "INCLINATION": 97.3053,
    "RA_OF_ASC_NODE": 264.8914,
    "ARG_OF_PERICENTER": 273.7948,
    "MEAN_ANOMALY": 86.2767,
    "EPHEMERIS_TYPE": 0,
    "CLASSIFICATION_TYPE": "U",
    "NORAD_CAT_ID": 55047,
    "ELEMENT_SET_NO": 999,
    "REV_AT_EPOCH": 19788,
    "BSTAR": 0.00036157,
    "MEAN_MOTION_DOT": 0.00009924,
    "MEAN_MOTION_DDOT": 0
  }
]
